SITRO-AIS-26
1 59067U 24039S   25303.96555664  .00006934  00000-0  56738-3 0  9998
2 59067  95.3919  77.7227 0152913  49.1135 312.3219 14.90707402 90533
SITRO-AIS-27
1 59068U 24039T   25303.92834281  .00007352  00000-0  59689-3 0  9993
2 59068  95.3921  77.8725 0152233  48.3941 313.0211 14.91058206 90545
SITRO-AIS-28
1 59071U 24039U   25303.97861947  .00007036  00000-0  57114-3 0  9991
2 59071  95.3920  77.9416 0151967  48.0711 313.3353 14.91100591 90557
SONATE-2
1 59112U 24043Q   25303.93020930  .00036862  00000-0  86181-3 0  9992
2 59112  97.5309  78.6937 0009161 322.8426  37.2186 15.42030594 92378
HORS-1
1 57188U 23091Y   25303.95647922  .00015085  00000-0  66932-3 0  9999
2 57188  97.5421   1.6570 0010308 168.8334 191.3132 15.21629305129391
HORS-2
1 57196U 23091AG  25303.99191096  .00019886  00000-0  79923-3 0  9995
2 57196  97.5435   3.6021 0009771 165.3145 194.8378 15.24924437129513
ZORKIY-2M 6
1 59774U 24092B   25303.94005006  .00016645  00000-0  71154-3 0  9999
2 59774  97.6273  63.1324 0009237 264.6596  95.3587 15.22889073 80578
ZORKIY-2M 4
1 59775U 24092C   25303.94937075  .00017745  00000-0  74680-3 0  9999
2 59775  97.6407  64.3388 0009287 267.9864  92.0309 15.23403636 80608
SITRO-AIS-53
1 59776U 24092D   25303.60426974  .00024668  00000-0  93246-3 0  9995
2 59776  97.6350  64.3012 0008411 239.2343 120.8067 15.26938768 80593
SITRO-AIS-54
1 59777U 24092E   25303.60725187  .00024244  00000-0  91793-3 0  9999
2 59777  97.6352  64.2892 0008644 239.7608 120.2774 15.26885293 80591
SITRO-AIS-56
1 59778U 24092F   25303.60604005  .00024703  00000-0  92347-3 0  9991
2 59778  97.6351  64.4137 0008773 240.1597 119.8770 15.27303365 80609
RASSVET 1-4
1 59779U 24092G   25303.93972582  .00000363  00000-0  15256-3 0  9996
2 59779  98.6506  58.5569 0012412 158.2695 201.9017 14.31702115 76094
RASSVET 1-5
1 59780U 24092H   25303.93956602  .00000355  00000-0  14972-3 0  9998
2 59780  98.6505  58.5519 0012763 159.6230 200.5465 14.31701498 76094
RASSVET 1-6
1 59781U 24092J   25303.93826521  .00000360  00000-0  15153-3 0  9993
2 59781  98.6502  58.5549 0012650 159.8738 200.2947 14.31701795 76097
SITRO-AIS-55
1 59809U 24092K   25303.77073871  .00024232  00000-0  92017-3 0  9996
2 59809  97.6341  64.3418 0008865 239.3709 120.6655 15.26787023 80115
MESAT-1
1 60209U 24125G   25303.83286174  .00043989  00000-0  99909-3 0  9995
2 60209  97.2589 154.2722 0015849 347.6155  12.4701 15.42768840 73987
ISTSAT-1
1 60238U 24128D   25303.96646020  .00011545  00000-0  74264-3 0  9994
2 60238  61.9893 294.3587 0055070  86.3622 274.3767 15.07554436 71856
IONOSFERA-M 01
1 61735U 24199A   25303.92747080  .00000079  00000-0  54941-4 0  9990
2 61735  98.7450 174.0960 0002112  82.5609 277.5809 14.22699506 95107
IONOSFERA-M 02
1 61736U 24199B   25303.96217208  .00000092  00000-0  60725-4 0  9991
2 61736  98.7441 174.0434 0000218  62.8751 297.2449 14.22701507 98239
SITRO-AIS-16
1 61737U 24199C   25303.93410628  .00005836  00000-0  52594-3 0  9995
2 61737  97.3395 152.5304 0008479 114.0430 246.1681 14.95892805 97525
SITRO-AIS-15
1 61738U 24199D   25303.98866306  .00005263  00000-0  47444-3 0  9991
2 61738  97.3388 152.6102 0008027 114.9367 245.2690 14.95924442 97536
SITRO-AIS-21
1 61739U 24199E   25303.97920485  .00003185  00000-0  30268-3 0  9997
2 61739  97.3395 151.7427 0014306 112.5923 247.6813 14.94049296 97519
SITRO-AIS-22
1 61740U 24199F   25303.96248593  .00004276  00000-0  40209-3 0  9999
2 61740  97.3398 151.7740 0014205 112.2124 248.0605 14.94302082 97665
SITRO-AIS-24
1 61741U 24199G   25303.97135399  .00005262  00000-0  49372-3 0  9996
2 61741  97.3397 151.7677 0014057 113.3071 246.9631 14.94302284 97639
SITRO-AIS-23
1 61742U 24199H   25303.95412565  .00004134  00000-0  38861-3 0  9996
2 61742  97.3402 151.7858 0014130 112.7045 247.5672 14.94331032 97516
SITRO-AIS-13
1 61743U 24199J   25303.94805315  .00005235  00000-0  46932-3 0  9996
2 61743  97.3401 152.6587 0007938 113.6393 246.5664 14.96145807 97693
CSTP-2.11
1 61744U 24199K   25303.96451177  .00031450  00000-0  81913-3 0  9998
2 61744  97.3309 172.3576 0012057  36.6129 323.5938 15.38743988 98969
POLYTECH UNIVERSE-5 (RS70S)
1 61745U 24199L   25303.92677678  .00043189  00000-0  10214-2 0  9998
2 61745  97.3285 172.8861 0010145  43.5758 316.6289 15.41636814102147
COLIBRI-S (RS67S)
1 61746U 24199M   25303.94735001  .00026350  00000-0  72520-3 0  9996
2 61746  97.3313 171.9279 0012209  38.7702 321.4416 15.37073169102072
POLYTECH UNIVERSE-4 (RS71S)
1 61747U 24199N   25303.97715088  .00024475  00000-0  69290-3 0  9999
2 61747  97.3315 171.7364 0012466  36.6343 323.5751 15.36203907102069
SITRO-AIS-44
1 61748U 24199P   25303.95215494  .00045991  00000-0  10317-2 0  9995
2 61748  97.3270 173.2770 0009816  43.2390 316.9626 15.43211618102174
VIZARD-ION (RS68S)
1 61749U 24199Q   25303.96715212  .00035964  00000-0  90231-3 0  9993
2 61749  97.3313 172.6639 0011634  36.5358 323.6679 15.39868025102123
MTUSI-1
1 61750U 24199R   25303.94143123  .00038363  00000-0  97707-3 0  9990
2 61750  97.3281 172.2586 0012091  45.2851 314.9377 15.39388496102104
VLADIVOSTOK-1
1 61751U 24199S   25303.93668227  .00014805  00000-0  48568-3 0  9993
2 61751  97.3299 170.3472 0012347  52.9991 307.2379 15.31634573101985
SITRO-AIS-14
1 61752U 24199T   25303.97699458  .00004964  00000-0  44726-3 0  9995
2 61752  97.3388 152.6241 0007620 115.6931 244.5079 14.95976864100835
HORS-3 (RS81S)
1 61753U 24199U   25303.95950822  .00034918  00000-0  88200-3 0  9996
2 61753  97.3284 172.3743 0010892  46.7157 313.4996 15.39676341102119
HORS-4 (RS82S)
1 61754U 24199V   25303.93751594  .00041147  00000-0  99258-3 0  9997
2 61754  97.3271 172.6869 0011061  44.9791 315.2350 15.41039772102131
SITRO-AIS-43
1 61755U 24199W   25303.93696947  .00048598  00000-0  10859-2 0  9994
2 61755  97.3270 173.2970 0009739  42.9929 317.2079 15.43316689102172
SITRO-AIS-42
1 61756U 24199X   25303.92779980  .00049329  00000-0  10983-2 0  9994
2 61756  97.3272 173.3133 0009804  42.6836 317.5172 15.43418485102178
HORIZON (RS59S)
1 61757U 24199Y   25303.96028789  .00065376  00000-0  12509-2 0  9999
2 61757  97.3285 174.2834 0010146  32.8770 327.3109 15.47791431102235
SITRO-AIS-20
1 61758U 24199Z   25303.93085529  .00005882  00000-0  52583-3 0  9995
2 61758  97.3389 152.6702 0007793 116.2372 243.9652 14.96210410100830
SITRO-AIS-19
1 61759U 24199AA  25303.93107255  .00005894  00000-0  52708-3 0  9999
2 61759  97.3389 152.6718 0007718 117.5039 242.6969 14.96197577100834
SITRO-AIS-41
1 61760U 24199AB  25303.98326499  .00045653  00000-0  10326-2 0  9995
2 61760  97.3277 173.2554 0009849  42.7322 317.4690 15.42968220102174
2024-199AC
1 61761U 24199AC  25303.95057582  .00037212  00000-0  91411-3 0  9994
2 61761  97.3270 172.6727 0009886  44.3180 315.8856 15.40523185102131
ARCTICSAT-1 (RS74S)
1 61762U 24199AD  25303.92400052  .00062324  00000-0  12308-2 0  9995
2 61762  97.3285 174.1745 0010359  31.9470 328.2406 15.46885786102229
SIT-HSE
1 61763U 24199AE  25303.94204706  .00047987  00000-0  11760-2 0  9995
2 61763  97.3288 173.0143 0008461  49.0155 311.1822 15.40551180102151
SIT-2086
1 61764U 24199AF  25303.97393293  .00025638  00000-0  63421-3 0  9990
2 61764  97.3284 173.1167 0009012  35.6255 324.5591 15.40394926 99003
MORDOVIA-IOT (RS50S)
1 61765U 24199AG  25303.93828480  .00122993  00000-0  16694-2 0  9999
2 61765  97.3231 176.0538 0008606  32.9467 327.2323 15.57174374 99209
RUZAEVKA-390 (RS44S)
1 61766U 24199AH  25303.95640334  .00088953  00000-0  13972-2 0  9995
2 61766  97.3247 175.4193 0008812  31.9139 328.2647 15.53301203 99165
2024-199AJ (? AHMAT-2)
1 61767U 24199AJ  25303.96267611  .00186025  00000-0  19364-2 0  9990
2 61767  97.3188 177.0186 0006969  33.6266 326.5434 15.63945484 99274
HOD-HOD
1 61768U 24199AK  25303.97803547  .00029113  00000-0  76510-3 0  9997
2 61768  97.3286 172.3841 0008860  51.6691 308.5349 15.38518055 98966
KOSAR
1 61769U 24199AL  25303.95524534  .00031551  00000-0  79379-3 0  9997
2 61769  97.3283 172.6959 0008765  51.7609 308.4424 15.39840402 98981
SITRO-AIS-48
1 61771U 24199AN  25303.98208465  .00039033  00000-0  97700-3 0  9996
2 61771  97.3255 172.0764 0012969  52.1472 308.0945 15.39904712 98951
HYPERVIEW-1G (RS66S)
1 61772U 24199AP  25303.94789986  .00049629  00000-0  11022-2 0  9999
2 61772  97.3270 172.9767 0013181  43.7990 316.4301 15.43451143 99005
SITRO-AIS-47
1 61773U 24199AQ  25303.95677167  .00039283  00000-0  97512-3 0  9992
2 61773  97.3258 172.1184 0012889  52.9127 307.3295 15.40157628 98957
SITRO-AIS-46
1 61774U 24199AR  25303.96309823  .00040389  00000-0  98648-3 0  9995
2 61774  97.3253 172.2433 0012930  53.0235 307.2193 15.40643144 98960
CSTP-2.2
1 61775U 24199AS  25303.97992834  .00022749  00000-0  64545-3 0  9996
2 61775  97.3299 171.1927 0019112  32.6247 327.6174 15.36042683 98884
SITRO-AIS-40
1 61776U 24199AT  25303.96395060  .00040755  00000-0  99358-3 0  9991
2 61776  97.3253 172.2461 0013027  52.9311 307.3125 15.40695717102116
CSTP-2.1
1 61777U 24199AU  25303.97692791  .00023421  00000-0  66152-3 0  9991
2 61777  97.3298 171.1894 0018538  33.4484 326.7927 15.36189089 98889
SITRO-AIS-39
1 61778U 24199AV  25303.94894087  .00038227  00000-0  96133-3 0  9993
2 61778  97.3255 171.9711 0013231  53.3274 306.9186 15.39762568 98948
ALTAIR (RS65S)
1 61779U 24199AW  25303.96242922  .00014536  00000-0  47724-3 0  9990
2 61779  97.3316 170.1894 0016247  52.0018 308.2687 15.31555899101969
SITRO-AIS-37
1 61780U 24199AX  25303.98513846  .00041038  00000-0  10204-2 0  9999
2 61780  97.3263 172.1139 0013416  52.9798 307.2673 15.40088343 98958
ASRTU-1 (RS64S/BJ2CR)
1 61781U 24199AY  25303.93720907  .00014755  00000-0  49653-3 0  9990
2 61781  97.3301 169.8822 0016696  52.7817 307.4945 15.30749928 98795
TUSUR GO (RS78S)
1 61782U 24199AZ  25303.93805986  .00069341  00000-0  13687-2 0  9990
2 61782  97.3256 173.4250 0012969  43.0882 317.1380 15.46836590 99033
